#aV2010  5  5  0  0   .00000000      96 DD+AD WGS84 FIT  NGA
## 1582 259200.00000000   900.00000000 55321  .0000000000000
+   31     1  2  3  4  5  6  7  8  9 10 11 12 13 14 15 16 17
+         18 19 20 21 22 23 24 26 27 28 29 30 31 32  0  0  0
+          0  0  0  0  0  0  0  0  0  0  0  0  0  0  0  0  0
+          0  0  0  0  0  0  0  0  0  0  0  0  0  0  0  0  0
+          0  0  0  0  0  0  0  0  0  0  0  0  0  0  0  0  0
++         0  0  0  0  0  0  0  0  0  0  0  0  0  0  0  0  0
++         0  0  0  0  0  0  0  0  0  0  0  0  0  0  0  0  0
++         0  0  0  0  0  0  0  0  0  0  0  0  0  0  0  0  0
++         0  0  0  0  0  0  0  0  0  0  0  0  0  0  0  0  0
++         0  0  0  0  0  0  0  0  0  0  0  0  0  0  0  0  0
%c cc cc ccc ccc cccc cccc cccc cccc ccccc ccccc ccccc ccccc
%c cc cc ccc ccc cccc cccc cccc cccc ccccc ccccc ccccc ccccc
%f  0.0000000  0.000000000  0.00000000000  0.000000000000000
%f  0.0000000  0.000000000  0.00000000000  0.000000000000000
%i    0    0    0    0      0      0      0      0         0
%i    0    0    0    0      0      0      0      0         0
/*      NGA, ST. LOUIS,MO.                                  
/*   EPHEMERIS COMPUTED FROM  3 DAYS OF DATA                
/* CCCCCCCCCCCCCCCCCCCCCCCCCCCCCCCCCCCCCCCCCCCCCCCCCCCCCCCCC
/* CCCCCCCCCCCCCCCCCCCCCCCCCCCCCCCCCCCCCCCCCCCCCCCCCCCCCCCCC
*  2010  5  5 22  0   .00000000                                                 
P  1  13655.222519  -6585.025516  21702.124703   -116.769966                    
V  1   9206.114525  26232.344779   2297.174935      -.040647                    
P  2  -4740.620404  14977.248015  21361.165431    252.970684                    
V  2 -26751.764601  -5478.844688  -2548.008206       .035234                    
P  3   7023.675611 -23514.989377 -10069.479920    551.099956                    
V  3  10041.944407  -8206.694977  27491.940340       .050618                    
P  4 -20141.631158   7539.113580  15643.268963     75.451046                    
V  4 -19234.607127  -6207.898493 -21181.399390       .084441                    
P  5    616.311645  24409.840222  10328.651384     -2.423084                    
V  5  -6699.958243 -11640.938774  27941.838446      -.006647                    
P  6  12081.459102 -22647.990499  -6345.577301    648.166463                    
V  6   8062.291003  -4255.052907  29824.306147      -.105851                    
P  7 -25843.770934  -6345.786151   1450.720906      -.190104                    
V  7   2278.416428  -1911.131629  31813.746495      -.003463                    
P  8 -24569.386443    451.372245 -10753.531608      5.240663                    
V  8 -12607.730431  -4716.717022  28137.860292       .001670                    
P  9  13060.624252  14759.232582 -18372.429286      4.810970                    
V  9 -22022.494940  -2744.535940 -18363.862337       .022509                    
P 10  -6740.681624  18943.557489  16987.208415    -41.905064                    
V 10  -8579.635475 -20463.967179  19549.363091      -.008489                    
P 11 -18144.894403 -12115.846477 -15635.385506    -60.748249                    
V 11  19407.999571  -3660.615582 -19653.493699      -.023111                    
P 12  12148.267477  22788.425270   6597.253865   -118.715139                    
V 12    401.016633   8560.024406 -30396.233053       .043332                    
P 13 -16054.946074  -3204.865108  20778.763626    304.733579                    
V 13  18506.196703 -19142.927803  11247.636367      -.003385                    
P 14  20938.243950 -14191.159208  -7753.013010     42.161597                    
V 14  -5549.579598   8602.065281 -30329.500757       .044559                    
P 15   -876.434901  20001.750274 -17381.819309   -277.263900                    
V 15 -15838.160641  15617.863792  18870.553704       .054767                    
P 16   4313.677210 -21278.337534  15152.539995    -68.531701                    
V 16   7493.216505  17837.405437  23251.476080      -.038051                    
P 17 -20884.808448  13712.756862  -8589.319560    148.894817                    
V 17   5485.714764 -10066.109915 -29266.397766       .024579                    
P 18  16880.556758   8340.129536 -18608.385064     66.358011                    
V 18   5626.872082  23522.740316  15050.778485       .024484                    
P 19   1134.333222 -19040.342646 -18319.097811    -32.860783                    
V 19  18064.780160 -15059.727813  17039.294985      -.026585                    
P 20 -14223.922815 -20801.213137   8336.966984     56.602075                    
V 20   -690.174586 -11253.735613 -28730.851740      -.005886                    
P 21  26473.734305   4096.159790  -2171.260557    -58.146129                    
V 21   2370.391957   3739.567856  30562.808363      -.025708                    
P 22  14668.548695  -5623.640862 -21252.116109    172.774731                    
V 22   8191.376310  26218.281150  -1362.978462      -.010513                    
P 23 -10171.929110 -11147.349067  21815.219967    371.888882                    
V 23  18776.302406 -20450.684209  -2000.003567      -.013264                    
P 24  24656.550770   -659.981506  -9472.001362    284.837109                    
V 24  11087.369372   6003.771240  28429.129433       .031767                    
P 26   9336.957039  11545.483565 -22534.690882    -48.029702                    
V 26 -19542.612123  19001.391139   2101.676319      -.048932                    
P 27  10498.963379  14486.236500 -19001.246807    149.323794                    
V 27 -25402.832795  -2574.922324 -15309.545851       .034524                    
P 28 -14681.963681   2411.703699 -21539.443545    -16.924578                    
V 28  -8038.951488 -27293.998971   2091.630249       .009841                    
P 29  16172.331296   4021.984823  20769.461099    117.768840                    
V 29 -17293.474175  19654.723107   9742.578107       .027491                    
P 30  16586.253878  14359.051300  14618.629524    239.972736                    
V 30   4790.507611  18772.243807 -23199.976029       .034847                    
P 31  17837.934995  -8699.278235  17945.571591    -38.259031                    
V 31  21567.151425   5657.913638 -18742.617852       .021961                    
P 32  -7511.335582 -25627.316686   1805.723444     35.984658                    
V 32   2041.203360  -2407.837973 -31399.024821      -.084863                    
EOF
